CCSDS_OMM_VERS = 2.0
CREATION_DATE  = 
ORIGINATOR     = 

OBJECT_NAME    = STARLINK-36740
OBJECT_ID      = 2026-026W
CENTER_NAME    = EARTH
REF_FRAME      = TEME
TIME_SYSTEM    = UTC
MEAN_ELEMENT_THEORY = SGP/SGP4

EPOCH          = 2026-02-28T12:00:00.998784
MEAN_MOTION    = 15.80752787
ECCENTRICITY   = .0001437
INCLINATION    = 97.2864
RA_OF_ASC_NODE = 113.7507
ARG_OF_PERICENTER = 97.2595
MEAN_ANOMALY   = 10.0259

EPHEMERIS_TYPE = 0
CLASSIFICATION_TYPE = U
NORAD_CAT_ID   = 67741
ELEMENT_SET_NO = 999
REV_AT_EPOCH   = 383
BSTAR          = .70168E-3
MEAN_MOTION_DOT = .135985E-2
MEAN_MOTION_DDOT = 0

CCSDS_OMM_VERS = 2.0
CREATION_DATE  = 
ORIGINATOR     = 

OBJECT_NAME    = STARLINK-36693
OBJECT_ID      = 2026-026X
CENTER_NAME    = EARTH
REF_FRAME      = TEME
TIME_SYSTEM    = UTC
MEAN_ELEMENT_THEORY = SGP/SGP4

EPOCH          = 2026-02-28T12:00:00.998784
MEAN_MOTION    = 15.80721538
ECCENTRICITY   = .0001302
INCLINATION    = 97.2868
RA_OF_ASC_NODE = 113.7431
ARG_OF_PERICENTER = 112.1478
MEAN_ANOMALY   = 332.8100

EPHEMERIS_TYPE = 0
CLASSIFICATION_TYPE = U
NORAD_CAT_ID   = 67742
ELEMENT_SET_NO = 999
REV_AT_EPOCH   = 397
BSTAR          = .10247E-2
MEAN_MOTION_DOT = .199837E-2
MEAN_MOTION_DDOT = 0

CCSDS_OMM_VERS = 2.0
CREATION_DATE  = 
ORIGINATOR     = 

OBJECT_NAME    = STARLINK-36717
OBJECT_ID      = 2026-026Y
CENTER_NAME    = EARTH
REF_FRAME      = TEME
TIME_SYSTEM    = UTC
MEAN_ELEMENT_THEORY = SGP/SGP4

EPOCH          = 2026-02-28T12:00:00.998784
MEAN_MOTION    = 15.80731587
ECCENTRICITY   = .0001587
INCLINATION    = 97.2869
RA_OF_ASC_NODE = 113.7486
ARG_OF_PERICENTER = 100.7810
MEAN_ANOMALY   = 359.8857

EPHEMERIS_TYPE = 0
CLASSIFICATION_TYPE = U
NORAD_CAT_ID   = 67743
ELEMENT_SET_NO = 999
REV_AT_EPOCH   = 397
BSTAR          = .84918E-3
MEAN_MOTION_DOT = .164994E-2
MEAN_MOTION_DDOT = 0

CCSDS_OMM_VERS = 2.0
CREATION_DATE  = 
ORIGINATOR     = 

OBJECT_NAME    = STARLINK-36692
OBJECT_ID      = 2026-026Z
CENTER_NAME    = EARTH
REF_FRAME      = TEME
TIME_SYSTEM    = UTC
MEAN_ELEMENT_THEORY = SGP/SGP4

EPOCH          = 2026-02-28T12:00:00.998784
MEAN_MOTION    = 15.80754458
ECCENTRICITY   = .0001462
INCLINATION    = 97.2867
RA_OF_ASC_NODE = 113.7459
ARG_OF_PERICENTER = 94.9115
MEAN_ANOMALY   = 358.4162

EPHEMERIS_TYPE = 0
CLASSIFICATION_TYPE = U
NORAD_CAT_ID   = 67744
ELEMENT_SET_NO = 999
REV_AT_EPOCH   = 383
BSTAR          = .8746E-3
MEAN_MOTION_DOT = .170216E-2
MEAN_MOTION_DDOT = 0

CCSDS_OMM_VERS = 2.0
CREATION_DATE  = 
ORIGINATOR     = 

OBJECT_NAME    = 2026-027A
OBJECT_ID      = 2026-027A
CENTER_NAME    = EARTH
REF_FRAME      = TEME
TIME_SYSTEM    = UTC
MEAN_ELEMENT_THEORY = SGP/SGP4

EPOCH          = 2026-02-28T11:20:23.759808
MEAN_MOTION    = 15.17497607
ECCENTRICITY   = .0009557
INCLINATION    = 97.4886
RA_OF_ASC_NODE = 188.5851
ARG_OF_PERICENTER = 227.3806
MEAN_ANOMALY   = 132.6622

EPHEMERIS_TYPE = 0
CLASSIFICATION_TYPE = U
NORAD_CAT_ID   = 67746
ELEMENT_SET_NO = 999
REV_AT_EPOCH   = 246
BSTAR          = .44069E-3
MEAN_MOTION_DOT = .8778E-4
MEAN_MOTION_DDOT = 0

CCSDS_OMM_VERS = 2.0
CREATION_DATE  = 
ORIGINATOR     = 

OBJECT_NAME    = 2026-027B
OBJECT_ID      = 2026-027B
CENTER_NAME    = EARTH
REF_FRAME      = TEME
TIME_SYSTEM    = UTC
MEAN_ELEMENT_THEORY = SGP/SGP4

EPOCH          = 2026-02-28T11:18:50.445216
MEAN_MOTION    = 15.17598265
ECCENTRICITY   = .0009673
INCLINATION    = 97.4881
RA_OF_ASC_NODE = 188.5852
ARG_OF_PERICENTER = 229.9607
MEAN_ANOMALY   = 130.0779

EPHEMERIS_TYPE = 0
CLASSIFICATION_TYPE = U
NORAD_CAT_ID   = 67747
ELEMENT_SET_NO = 999
REV_AT_EPOCH   = 246
BSTAR          = .43844E-3
MEAN_MOTION_DOT = .8759E-4
MEAN_MOTION_DDOT = 0

CCSDS_OMM_VERS = 2.0
CREATION_DATE  = 
ORIGINATOR     = 

OBJECT_NAME    = 2026-027C
OBJECT_ID      = 2026-027C
CENTER_NAME    = EARTH
REF_FRAME      = TEME
TIME_SYSTEM    = UTC
MEAN_ELEMENT_THEORY = SGP/SGP4

EPOCH          = 2026-02-28T11:17:07.013184
MEAN_MOTION    = 15.17666535
ECCENTRICITY   = .0010045
INCLINATION    = 97.4893
RA_OF_ASC_NODE = 188.5894
ARG_OF_PERICENTER = 232.9859
MEAN_ANOMALY   = 127.0456

EPHEMERIS_TYPE = 0
CLASSIFICATION_TYPE = U
NORAD_CAT_ID   = 67748
ELEMENT_SET_NO = 999
REV_AT_EPOCH   = 246
BSTAR          = .30556E-3
MEAN_MOTION_DOT = .6094E-4
MEAN_MOTION_DDOT = 0

CCSDS_OMM_VERS = 2.0
CREATION_DATE  = 
ORIGINATOR     = 

OBJECT_NAME    = 2026-027D
OBJECT_ID      = 2026-027D
CENTER_NAME    = EARTH
REF_FRAME      = TEME
TIME_SYSTEM    = UTC
MEAN_ELEMENT_THEORY = SGP/SGP4

EPOCH          = 2026-02-28T11:14:12.072192
MEAN_MOTION    = 15.17923877
ECCENTRICITY   = .0009777
INCLINATION    = 97.4887
RA_OF_ASC_NODE = 188.5911
ARG_OF_PERICENTER = 237.8577
MEAN_ANOMALY   = 122.1709

EPHEMERIS_TYPE = 0
CLASSIFICATION_TYPE = U
NORAD_CAT_ID   = 67749
ELEMENT_SET_NO = 999
REV_AT_EPOCH   = 241
BSTAR          = .4731E-3
MEAN_MOTION_DOT = .9547E-4
MEAN_MOTION_DDOT = 0

CCSDS_OMM_VERS = 2.0
CREATION_DATE  = 
ORIGINATOR     = 

OBJECT_NAME    = 2026-027E
OBJECT_ID      = 2026-027E
CENTER_NAME    = EARTH
REF_FRAME      = TEME
TIME_SYSTEM    = UTC
MEAN_ELEMENT_THEORY = SGP/SGP4

EPOCH          = 2026-02-28T11:14:10.798656
MEAN_MOTION    = 15.17903408
ECCENTRICITY   = .0008952
INCLINATION    = 97.4897
RA_OF_ASC_NODE = 188.5936
ARG_OF_PERICENTER = 238.9512
MEAN_ANOMALY   = 121.0844

EPHEMERIS_TYPE = 0
CLASSIFICATION_TYPE = U
NORAD_CAT_ID   = 67750
ELEMENT_SET_NO = 999
REV_AT_EPOCH   = 246
BSTAR          = .42943E-3
MEAN_MOTION_DOT = .8651E-4
MEAN_MOTION_DDOT = 0

CCSDS_OMM_VERS = 2.0
CREATION_DATE  = 
ORIGINATOR     = 

OBJECT_NAME    = 2026-027F
OBJECT_ID      = 2026-027F
CENTER_NAME    = EARTH
REF_FRAME      = TEME
TIME_SYSTEM    = UTC
MEAN_ELEMENT_THEORY = SGP/SGP4

EPOCH          = 2026-02-28T11:12:24.788448
MEAN_MOTION    = 15.18118377
ECCENTRICITY   = .0010134
INCLINATION    = 97.4897
RA_OF_ASC_NODE = 188.5957
ARG_OF_PERICENTER = 239.1298
MEAN_ANOMALY   = 120.8939

EPHEMERIS_TYPE = 0
CLASSIFICATION_TYPE = U
NORAD_CAT_ID   = 67751
ELEMENT_SET_NO = 999
REV_AT_EPOCH   = 246
BSTAR          = .75367E-3
MEAN_MOTION_DOT = .15347E-3
MEAN_MOTION_DDOT = 0

CCSDS_OMM_VERS = 2.0
CREATION_DATE  = 
ORIGINATOR     = 

OBJECT_NAME    = 2026-027G
OBJECT_ID      = 2026-027G
CENTER_NAME    = EARTH
REF_FRAME      = TEME
TIME_SYSTEM    = UTC
MEAN_ELEMENT_THEORY = SGP/SGP4

EPOCH          = 2026-02-28T11:12:48.535488
MEAN_MOTION    = 15.18002326
ECCENTRICITY   = .0009266
INCLINATION    = 97.4892
RA_OF_ASC_NODE = 188.5937
ARG_OF_PERICENTER = 241.3359
MEAN_ANOMALY   = 118.6944

EPHEMERIS_TYPE = 0
CLASSIFICATION_TYPE = U
NORAD_CAT_ID   = 67752
ELEMENT_SET_NO = 999
REV_AT_EPOCH   = 246
BSTAR          = .45657E-3
MEAN_MOTION_DOT = .923E-4
MEAN_MOTION_DDOT = 0

CCSDS_OMM_VERS = 2.0
CREATION_DATE  = 
ORIGINATOR     = 

OBJECT_NAME    = 2026-027H
OBJECT_ID      = 2026-027H
CENTER_NAME    = EARTH
REF_FRAME      = TEME
TIME_SYSTEM    = UTC
MEAN_ELEMENT_THEORY = SGP/SGP4

EPOCH          = 2026-02-28T11:09:41.761152
MEAN_MOTION    = 15.67279262
ECCENTRICITY   = .0241468
INCLINATION    = 97.5123
RA_OF_ASC_NODE = 189.7798
ARG_OF_PERICENTER = 278.9215
MEAN_ANOMALY   = 78.4783

EPHEMERIS_TYPE = 0
CLASSIFICATION_TYPE = U
NORAD_CAT_ID   = 67753
ELEMENT_SET_NO = 999
REV_AT_EPOCH   = 253
BSTAR          = .58645E-3
MEAN_MOTION_DOT = .359044E-2
MEAN_MOTION_DDOT = .23721E-5

CCSDS_OMM_VERS = 2.0
CREATION_DATE  = 
ORIGINATOR     = 

OBJECT_NAME    = 2026-027J
OBJECT_ID      = 2026-027J
CENTER_NAME    = EARTH
REF_FRAME      = TEME
TIME_SYSTEM    = UTC
MEAN_ELEMENT_THEORY = SGP/SGP4

EPOCH          = 2026-02-28T10:55:24.426912
MEAN_MOTION    = 15.83350704
ECCENTRICITY   = .0188228
INCLINATION    = 97.5064
RA_OF_ASC_NODE = 189.9445
ARG_OF_PERICENTER = 277.6733
MEAN_ANOMALY   = 80.3197

EPHEMERIS_TYPE = 0
CLASSIFICATION_TYPE = U
NORAD_CAT_ID   = 67754
ELEMENT_SET_NO = 999
REV_AT_EPOCH   = 248
BSTAR          = .11954E-2
MEAN_MOTION_DOT = .1086379E-1
MEAN_MOTION_DDOT = .24277E-5

CCSDS_OMM_VERS = 2.0
CREATION_DATE  = 
ORIGINATOR     = 

OBJECT_NAME    = 2026-028A
OBJECT_ID      = 2026-028A
CENTER_NAME    = EARTH
REF_FRAME      = TEME
TIME_SYSTEM    = UTC
MEAN_ELEMENT_THEORY = SGP/SGP4

EPOCH          = 2026-02-28T07:16:30.709344
MEAN_MOTION    = 0.99525005
ECCENTRICITY   = .0042028
INCLINATION    = 0.4926
RA_OF_ASC_NODE = 289.1754
ARG_OF_PERICENTER = 229.6537
MEAN_ANOMALY   = 201.3087

EPHEMERIS_TYPE = 0
CLASSIFICATION_TYPE = U
NORAD_CAT_ID   = 67756
ELEMENT_SET_NO = 999
REV_AT_EPOCH   = 16
BSTAR          = 0
MEAN_MOTION_DOT = -.115E-5
MEAN_MOTION_DDOT = 0

CCSDS_OMM_VERS = 2.0
CREATION_DATE  = 
ORIGINATOR     = 

OBJECT_NAME    = KUIPER-00159
OBJECT_ID      = 2026-030A
CENTER_NAME    = EARTH
REF_FRAME      = TEME
TIME_SYSTEM    = UTC
MEAN_ELEMENT_THEORY = SGP/SGP4

EPOCH          = 2026-02-28T10:56:00.974976
MEAN_MOTION    = 15.35279912
ECCENTRICITY   = .0003844
INCLINATION    = 51.8832
RA_OF_ASC_NODE = 263.6831
ARG_OF_PERICENTER = 26.1230
MEAN_ANOMALY   = 333.9949

EPHEMERIS_TYPE = 0
CLASSIFICATION_TYPE = U
NORAD_CAT_ID   = 67764
ELEMENT_SET_NO = 999
REV_AT_EPOCH   = 367
BSTAR          = .96413E-3
MEAN_MOTION_DOT = .33305E-3
MEAN_MOTION_DDOT = 0

